,Company Name,Phone Number,Email,Suburb,Postcode
0,North Shore Tree Services,0411 832 260,michael@thetreeprofessionals.com.au,Blacktown,2148
1,Darling Arbor Tree Services,0475 684 105,darlingarbortreeservices@hotmail.com,Blacktown,2148
2,All Shores Tree Services,0477 087 087,ASTS@outlook.com.au,Blacktown,2148
3,At Your Tree Service,0415 124 794,atyourtreeservice@gmail.com,Blacktown,2148
4,Henshaws Tree Service,0459 740 168,matt@henshawstreeservice.com.au,Blacktown,2148
5,Sydney Stump Grinding,0438 427 860,cwsydstumpgrind@gmail.com,Blacktown,2148
6,Express Tree Service,0410 231 118,info@expresstreeservice.com.au,Blacktown,2148
7,Tree Servicing & Stumps,0405 311 055,No Email Given!,Blacktown,2148
8,Daymond S J Tree Stump Grinding,(02) 9621 6160,No Email Given!,Blacktown,2148
9,Premier Tree Services,(02) 9831 6757,No Email Given!,Blacktown,2148
10,A-One Tree Services,0402 491 421,No Email Given!,Blacktown,2148
11,On Line Tree Lopping Services,0416 299 525,No Email Given!,Blacktown,2148
12,Jeffs' Tree Service,0418 167 265,No Email Given!,Blacktown,2148
13,Active Industries,0405 267 878,No Email Given!,Blacktown,2148
14,On Call Tree Services & Gardening Pty Ltd,0409 633 444,oncalltrees@hotmail.com,Blacktown,2148
15,The Tree Doctor,1300 664 010,treedr@bigpond.net.au,Blacktown,2148
16,U Ring We Bring,0406 093 309,No Email Given!,Blacktown,2148
17,Tall Trees Productions Pty Ltd,0411 708 756,No Email Given!,Blacktown,2148
18,Asplundh,(02) 9625 6665,No Email Given!,Blacktown,2148
19,Fast Call Tree Services,1800 800 206,No Email Given!,Blacktown,2148
20,Bulldog Tree Services,0414 297 499,No Email Given!,Blacktown,2148
21,K & C Tree Guys,0422 619 398,No Email Given!,Blacktown,2148
22,Arbor Tree Services,(02) 9629 2500,No Email Given!,Blacktown,2148
23,Coomers Tree Services Pty Ltd,(02) 9832 3355,No Email Given!,Blacktown,2148
24,Fast Call Trees,1800 800 206,No Email Given!,Blacktown,2148
25,A Trusted Tree Service,1800 107 000,No Email Given!,Blacktown,2148
26,Evolution Tree Services Pty Ltd,1800 117 560,No Email Given!,Blacktown,2148
27,All Cut Tree Services,0411 344 599,No Email Given!,Blacktown,2148
28,DCA Hire Pty Ltd,0437 178 152,dcahire@hotmail.com,Blacktown,2148
29,Camel's Bins,(02) 9623 5599,info@camelsbins.com.au,Blacktown,2148
30,Sydney Stump Grinding,0438 427 860,cwsydstumpgrind@gmail.com,Blacktown,2148
31,Stump Grinding and Tree Lopping,(02) 9678 9914,james308@live.com.au,Blacktown,2148
32,down 2 earth trees and stumps,0406 296 434,down2earth@live.com.au,Blacktown,2148
33,Stumps R Us,0418 246 561,No Email Given!,Blacktown,2148
34,Cheapest Skips On Wheels,0488 851 937,mdidovich@hotmail.com,Blacktown,2148
